1 26871U 01031A   12025.29305236 -.00000294  00000-0  10000-3 0  4242
2 26871 001.9360 074.5787 0003152 264.4877 189.7303 01.00255829 38556